STARLINK-30979          
1 58485U 23186N   26128.25468735  .00001679  00000+0  70508-4 0  9995
2 58485  43.0028  87.4459 0000803 251.0689 109.0076 15.27591178134993
STARLINK-31005          
1 58486U 23186P   26128.24826356  .00007753  00000+0  29080-3 0  9999
2 58486  43.0017  87.3994 0001440 259.3921 100.6769 15.27598035134998
STARLINK-30987          
1 58487U 23186Q   26128.25214403  .00002659  00000+0  10614-3 0  9998
2 58487  43.0031  87.4242 0001161 265.9437  94.1282 15.27575756134999
STARLINK-31000          
1 58488U 23186R   26128.24056356  .00000675  00000+0  34055-4 0  9991
2 58488  43.0025  87.3435 0001153 280.7169  79.3552 15.27580032134992
STARLINK-30993          
1 58489U 23186S   26128.24442346  .00002053  00000+0  84123-4 0  9993
2 58489  43.0018  87.3712 0001225 252.5162 107.5556 15.27575522134999
STARLINK-30978          
1 58490U 23186T   26128.23414360  .00003372  00000+0  13202-3 0  9993
2 58490  43.0003  87.2960 0001113 268.9429  91.1295 15.27575767134991
STARLINK-30953          
1 58491U 23186U   26127.82162490 -.00000839  00000+0 -20969-4 0  9998
2 58491  43.0019 293.5534 0001335 291.8247  68.2462 15.27582410136937
STARLINK-30986          
1 58492U 23186V   26128.23028742 -.00000122  00000+0  50850-5 0  9993
2 58492  42.9990  87.2638 0001108 269.9876  90.0849 15.27585613134993
STARLINK-30985          
1 58493U 23186W   26127.17639647 -.00001261  00000+0 -36287-4 0  9991
2 58493  43.0050  93.1142 0002532 263.7263  96.3300 15.27574862134831
STARLINK-30981          
1 58494U 23186X   26128.21871577  .00001761  00000+0  73520-4 0  9992
2 58494  43.0033  87.1778 0001350 271.3022  88.7675 15.27577822134992
STARLINK-31002          
1 58495U 23186Y   26128.25856274  .00007236  00000+0  27253-3 0  9998
2 58495  43.0054  87.4674 0001057 265.9454  94.1277 15.27544376135163
XINGCHI-1 02A           
1 58496U 23187A   26128.29426817  .00001239  00000+0  15465-3 0  9999
2 58496  97.9260 211.3985 0010136 275.4492  84.5565 14.84153853131202
MISRSAT-2               
1 58497U 23187B   26128.25493109  .00000996  00000+0  12870-3 0  9990
2 58497  97.9269 210.4984 0009513 277.1762  82.8370 14.83147090131128
XINGCHI-1 02B           
1 58498U 23187C   26128.28063868  .00001238  00000+0  14900-3 0  9995
2 58498  97.9285 212.5061 0009198 270.7976  89.2185 14.85697006131259
DOORY-SAT               
1 58500U 23188A   26128.29844653  .00000786  00000+0  12809-3 0  9993
2 58500  46.9813 130.0882 0008687 213.9915 146.0423 14.80525392131084
2023-189A               
1 58502U 23189A   26128.30292133  .00003759  00000+0  12028-3 0  9994
2 58502  97.4398 146.2980 0012364  49.2058 311.0254 15.32979902135109
2023-189B               
1 58503U 23189B   26127.79368339  .00192992  15645-4  64150-3 0  9996
2 58503  97.3951 164.9067 0002485 236.8932 123.2102 15.90297861136359
CHUANGXIN 19 (CX-19)    
1 58505U 23190A   26128.28958389  .00000049  00000+0  62326-4 0  9994
2 58505  86.5048 346.3913 0001619  97.6027 262.5300 13.39549361119354
STARLINK-31026          
1 58508U 23191A   26127.37046212  .00000564  00000+0  30029-4 0  9997
2 58508  43.0030 139.0289 0001475 270.0633  90.0049 15.27577685134360
STARLINK-31020          
1 58509U 23191B   26128.07815404 -.00005575  00000+0 -19303-3 0  9993
2 58509  43.0038 134.8835 0001932 266.3180  93.7450 15.27604479134472
STARLINK-30989          
1 58510U 23191C   26128.29199686 -.00000116  00000+0  53145-5 0  9995
2 58510  43.0016 127.0988 0001061 272.0587  88.0143 15.27577384134617
STARLINK-30968          
1 58511U 23191D   26128.29585201  .00000488  00000+0  27255-4 0  9991
2 58511  43.0023 127.1256 0000984 274.7380  85.3360 15.27578390134583
STARLINK-30982          
1 58512U 23191E   26128.29970565  .00000363  00000+0  22712-4 0  9998
2 58512  43.0023 127.1508 0000864 280.6238  79.4516 15.27578659134584
STARLINK-30998          
1 58513U 23191F   26128.30227581  .00000489  00000+0  27296-4 0  9995
2 58513  43.0024 127.1773 0000816 266.9193  93.1565 15.27579566134613
STARLINK-30983          
1 58514U 23191G   26128.27400740  .00001252  00000+0  55002-4 0  9997
2 58514  43.0015 126.9600 0001167 275.0915  84.9803 15.27578084134238
STARLINK-31017          
1 58515U 23191H   26128.15565621  .00001884  00000+0  77985-4 0  9990
2 58515  43.0018 255.3321 0001206 279.4939  80.5776 15.27575489137271
STARLINK-31028          
1 58516U 23191J   26128.04958279  .00000171  00000+0  15734-4 0  9996
2 58516  43.0038 127.8521 0000945 275.1865  84.8878 15.27573891134552
STARLINK-31011          
1 58517U 23191K   26127.98034049  .00000258  00000+0  18889-4 0  9999
2 58517  43.0038 128.2005 0000911 279.6138  80.4610 15.27576929134540
STARLINK-31021          
1 58518U 23191L   26128.28814022 -.00000966  00000+0 -25572-4 0  9996
2 58518  43.0012 127.0451 0001078 264.1649  95.9079 15.27582822134589
STARLINK-31010          
1 58519U 23191M   26128.28425414  .00002698  00000+0  10745-3 0  9997
2 58519  43.0011 126.9798 0001106 274.8178  85.2547 15.27600461134580
STARLINK-31003          
1 58520U 23191N   26127.97905596  .00000763  00000+0  37265-4 0  9996
2 58520  43.0032 128.1898 0001009 284.4608  75.6132 15.27575879134540
STARLINK-31015          
1 58521U 23191P   26128.04829894  .00018590  00000+0  68318-3 0  9991
2 58521  43.0015 127.8507 0000866 266.0682  94.0071 15.27588265134521
STARLINK-30932          
1 58523U 23191R   26128.05599328 -.00025215  00000+0 -90595-3 0  9996
2 58523  43.0034 127.9042 0002821 273.7743  86.2786 15.27716449134506
STARLINK-30992          
1 58524U 23191S   26128.05986679 -.00000601  00000+0 -12333-4 0  9993
2 58524  43.0030 127.9336 0001252 267.7703  92.3005 15.27569745134557
STARLINK-30948          
1 58525U 23191T   26128.25859056  .00001485  00000+0  63474-4 0  9995
2 58525  43.0028 126.8454 0001277 274.9603  85.1103 15.27575461134584
STARLINK-31013          
1 58526U 23191U   26128.08962399  .00016176  00000+0  10360-2 0  9999
2 58526  42.9988 140.0757 0004007  78.0283 282.1010 15.08319239134419
STARLINK-31001          
1 58527U 23191V   26128.27784773  .00003309  00000+0  12970-3 0  9993
2 58527  43.0007 126.8933 0001177 263.0560  97.0157 15.27579346134582
STARLINK-31004          
1 58528U 23191W   26128.26244053  .00001682  00000+0  70645-4 0  9991
2 58528  43.0020 126.8684 0001215 255.3085 104.7632 15.27579861134586
STARLINK-30988          
1 58529U 23191X   26128.26629758 -.00002442  00000+0 -79248-4 0  9996
2 58529  43.0030 126.8980 0001400 273.4246  86.6446 15.27582902134584
STARLINK-31009          
1 58530U 23191Y   26128.27015034  .00001448  00000+0  62135-4 0  9995
2 58530  43.0018 126.9251 0001221 270.0510  90.0201 15.27580565134606
STARLINK-31012          
1 58531U 23192A   26128.23508298  .00000473  00000+0  28089-4 0  9999
2 58531  53.1591 146.0447 0000917  70.2078 289.9022 15.30187768135103
STARLINK-31035          
1 58532U 23192B   26128.27874160 -.00000807  00000+0 -15155-4 0  9991
2 58532  53.1606 132.8000 0000969  82.7216 277.3895 15.30169140135291
STARLINK-31036          
1 58533U 23192C   26128.23241158  .00002307  00000+0  79424-4 0  9997
2 58533  53.1609 146.0600 0001203  93.0183 267.0958 15.34382565135106
STARLINK-30936          
1 58534U 23192D   26128.24044801  .00001891  00000+0  75944-4 0  9995
2 58534  53.1596 136.1626 0001087  82.4218 277.6906 15.30196964135248
STARLINK-31032          
1 58535U 23192E   26128.26807736  .00002485  00000+0  84681-4 0  9990
2 58535  53.1599 145.5407 0001052  86.9553 273.1570 15.34392580135116
STARLINK-31037          
1 58536U 23192F   26128.24247106  .00000325  00000+0  23100-4 0  9998
2 58536  53.1599 146.1108 0001257  85.1096 275.0048 15.30187587135107
STARLINK-31041          
1 58537U 23192G   26128.24141552  .00000066  00000+0  14375-4 0  9993
2 58537  53.1592 146.0826 0001350  88.0299 272.0856 15.30185971135107
STARLINK-31014          
1 58538U 23192H   26128.23450542  .00002228  00000+0  77083-4 0  9992
2 58538  53.1617 146.0409 0001569  81.3130 278.8050 15.34385373135107
STARLINK-31055          
1 58539U 23192J   26128.28702311  .00001780  00000+0  63818-4 0  9995
2 58539  53.1604 145.6566 0001036  88.9237 271.1885 15.34383646135117
STARLINK-31019          
1 58540U 23192K   26127.46184935  .00000996  00000+0  45757-4 0  9992
2 58540  53.1600 149.7478 0001280  79.8415 280.2730 15.30202621134983
STARLINK-31045          
1 58541U 23192L   26128.25634201  .00005173  00000+0  18667-3 0  9998
2 58541  53.1591 222.9016 0001574  77.0855 283.0321 15.30197968134017
STARLINK-31030          
1 58542U 23192M   26128.28912229  .00002555  00000+0  86752-4 0  9993
2 58542  53.1605 145.6708 0001169  92.7687 267.3449 15.34388441135110
STARLINK-31049          
1 58543U 23192N   26128.22608939  .00002528  00000+0  85968-4 0  9996
2 58543  53.1600 145.9884 0001043  80.6855 279.4265 15.34387202135101
STARLINK-31048          
1 58544U 23192P   26128.28773376  .00000833  00000+0  40248-4 0  9990
2 58544  53.1594 145.6195 0001178  82.6958 277.4177 15.30186761135115
STARLINK-31057          
1 58545U 23192Q   26128.23030680  .00008914  00000+0  27452-3 0  9999
2 58545  53.1600 146.0148 0001392  71.0669 289.0484 15.34413810135107
STARLINK-31050          
1 58546U 23192R   26128.24923015  .00000534  00000+0  26937-4 0  9992
2 58546  53.1604 146.1295 0001017  61.0303 299.0802 15.34385415135108
STARLINK-31063          
1 58547U 23192S   26128.27726502  .00000644  00000+0  33892-4 0  9998
2 58547  53.1594 135.6209 0001297  83.3554 276.7594 15.30188595135252
STARLINK-31016          
1 58548U 23192T   26128.22558554  .00001511  00000+0  63141-4 0  9998
2 58548  53.1592 145.9408 0001102  90.9115 269.2012 15.30185976135104
STARLINK-31053          
1 58549U 23192U   26128.23658934  .00003648  00000+0  11903-3 0  9994
2 58549  53.1607 146.0540 0001150  73.2412 286.8716 15.34402272135109
